{"type": "FeatureCollection", "features": [ {"type": "Feature", "properties": {"norad_id": 66598, "name": "STARLINK-35981", "group": "last-30-days", "lat": -13.904212853317071, "lon": 16.633463164691207, "alt_km": 415.8766257230827, "timestamp": "2025-12-14T16:47:39.437129+00:00", "meta": {"OBJECT_NAME": "STARLINK-35981", "OBJECT_ID": "2025-270L", "EPOCH": "2025-12-13T20:00:03.000384", "MEAN_MOTION": 15.50520997, "ECCENTRICITY": 0.00014413, "INCLINATION": 42.9998, "RA_OF_ASC_NODE": 186.2963, "ARG_OF_PERICENTER": 264.4082, "MEAN_ANOMALY": 134.0635, "EPHEMERIS_TYPE": 0, "CLASSIFICATION_TYPE": "U", "NORAD_CAT_ID": 66598, "ELEMENT_SET_NO": 999, "REV_AT_EPOCH": 441, "BSTAR": 0.0012665475, "MEAN_MOTION_DOT": 0.00074517, "MEAN_MOTION_DDOT": 0}, "tle": {"line1": "1 66598U 25270L   25347.83336806  .00074517  00000+0  12665-2 0  9993", "line2": "2 66598  42.9998 186.2963 0001441 264.4082 134.0635 15.50520997  4412"}}, "geometry": {"type": "Point", "coordinates": [16.633463164691207, -13.904212853317071]}}, {"type": "Feature", "properties": {"norad_id": 66599, "name": "STARLINK-35930", "group": "last-30-days", "lat": -15.166579074536926, "lon": 18.135213746741144, "alt_km": 416.2752916124173, "timestamp": "2025-12-14T16:47:39.437140+00:00", "meta": {"OBJECT_NAME": "STARLINK-35930", "OBJECT_ID": "2025-270M", "EPOCH": "2025-12-13T20:00:03.000384", "MEAN_MOTION": 15.50519893, "ECCENTRICITY": 4.333e-05, "INCLINATION": 42.9998, "RA_OF_ASC_NODE": 186.2927, "ARG_OF_PERICENTER": 275.7722, "MEAN_ANOMALY": 124.617, "EPHEMERIS_TYPE": 0, "CLASSIFICATION_TYPE": "U", "NORAD_CAT_ID": 66599, "ELEMENT_SET_NO": 999, "REV_AT_EPOCH": 457, "BSTAR": 0.0012926863, "MEAN_MOTION_DOT": 0.00076073, "MEAN_MOTION_DDOT": 0}, "tle": {"line1": "1 66599U 25270M   25347.83336806  .00076073  00000+0  12927-2 0  9994", "line2": "2 66599  42.9998 186.2927 0000433 275.7722 124.6170 15.50519893  4578"}}, "geometry": {"type": "Point", "coordinates": [18.135213746741144, -15.166579074536926]}}, {"type": "Feature", "properties": {"norad_id": 66600, "name": "STARLINK-35980", "group": "last-30-days", "lat": -16.381741993947333, "lon": 19.60795483346925, "alt_km": 415.94351335541705, "timestamp": "2025-12-14T16:47:39.437152+00:00", "meta": {"OBJECT_NAME": "STARLINK-35980", "OBJECT_ID": "2025-270N", "EPOCH": "2025-12-13T20:00:03.000384", "MEAN_MOTION": 15.505215, "ECCENTRICITY": 0.00025763, "INCLINATION": 42.9996, "RA_OF_ASC_NODE": 186.2875, "ARG_OF_PERICENTER": 270.1868, "MEAN_ANOMALY": 132.1174, "EPHEMERIS_TYPE": 0, "CLASSIFICATION_TYPE": "U", "NORAD_CAT_ID": 66600, "ELEMENT_SET_NO": 999, "REV_AT_EPOCH": 447, "BSTAR": 0.0011330823, "MEAN_MOTION_DOT": 0.00066566, "MEAN_MOTION_DDOT": 0}, "tle": {"line1": "1 66600U 25270N   25347.83336806  .00066566  00000+0  11331-2 0  9991", "line2": "2 66600  42.9996 186.2875 0002576 270.1868 132.1174 15.50521500  4476"}}, "geometry": {"type": "Point", "coordinates": [19.60795483346925, -16.381741993947333]}}, {"type": "Feature", "properties": {"norad_id": 66601, "name": "STARLINK-35978", "group": "last-30-days", "lat": -11.987202019180938, "lon": 14.404748571517262, "alt_km": 429.2761349006014, "timestamp": "2025-12-14T16:47:39.437162+00:00", "meta": {"OBJECT_NAME": "STARLINK-35978", "OBJECT_ID": "2025-270P", "EPOCH": "2025-12-13T20:00:03.000384", "MEAN_MOTION": 15.49851228, "ECCENTRICITY": 0.00011096, "INCLINATION": 42.9996, "RA_OF_ASC_NODE": 186.2818, "ARG_OF_PERICENTER": 271.9421, "MEAN_ANOMALY": 132.0323, "EPHEMERIS_TYPE": 0, "CLASSIFICATION_TYPE": "U", "NORAD_CAT_ID": 66601, "ELEMENT_SET_NO": 999, "REV_AT_EPOCH": 441, "BSTAR": -0.041295062, "MEAN_MOTION_DOT": -0.02096132, "MEAN_MOTION_DDOT": 0}, "tle": {"line1": "1 66601U 25270P   25347.83336806 -.02096132  00000+0 -41295-1 0  9999", "line2": "2 66601  42.9996 186.2818 0001109 271.9421 132.0323 15.49851228  4419"}}, "geometry": {"type": "Point", "coordinates": [14.404748571517262, -11.987202019180938]}}, {"type": "Feature", "properties": {"norad_id": 66602, "name": "STARLINK-36050", "group": "last-30-days", "lat": 29.471182270214708, "lon": -35.9443127580195, "alt_km": 439.9659437108021, "timestamp": "2025-12-14T16:47:39.437174+00:00", "meta": {"OBJECT_NAME": "STARLINK-36050", "OBJECT_ID": "2025-270Q", "EPOCH": "2025-12-13T20:00:03.000384", "MEAN_MOTION": 15.40662865, "ECCENTRICITY": 0.00015776, "INCLINATION": 42.9996, "RA_OF_ASC_NODE": 186.3823, "ARG_OF_PERICENTER": 255.1434, "MEAN_ANOMALY": 107.478, "EPHEMERIS_TYPE": 0, "CLASSIFICATION_TYPE": "U", "NORAD_CAT_ID": 66602, "ELEMENT_SET_NO": 999, "REV_AT_EPOCH": 447, "BSTAR": 0.00069530869, "MEAN_MOTION_DOT": 0.00028815, "MEAN_MOTION_DDOT": 0}, "tle": {"line1": "1 66602U 25270Q   25347.83336806  .00028815  00000+0  69531-3 0  9994", "line2": "2 66602  42.9996 186.3823 0001577 255.1434 107.4780 15.40662865  4471"}}, "geometry": {"type": "Point", "coordinates": [-35.9443127580195, 29.471182270214708]}}, {"type": "Feature", "properties": {"norad_id": 66603, "name": "STARLINK-36048", "group": "last-30-days", "lat": -20.002332655048527, "lon": 24.198155387211543, "alt_km": 416.27394420851033, "timestamp": "2025-12-14T16:47:39.437185+00:00", "meta": {"OBJECT_NAME": "STARLINK-36048", "OBJECT_ID": "2025-270R", "EPOCH": "2025-12-13T20:00:03.000384", "MEAN_MOTION": 15.50546418, "ECCENTRICITY": 0.00016452, "INCLINATION": 42.9997, "RA_OF_ASC_NODE": 186.2724, "ARG_OF_PERICENTER": 250.6549, "MEAN_ANOMALY": 157.3977, "EPHEMERIS_TYPE": 0, "CLASSIFICATION_TYPE": "U", "NORAD_CAT_ID": 66603, "ELEMENT_SET_NO": 999, "REV_AT_EPOCH": 447, "BSTAR": 0.00013154381, "MEAN_MOTION_DOT": 7.374e-05, "MEAN_MOTION_DDOT": 0}, "tle": {"line1": "1 66603U 25270R   25347.83336806  .00007374  00000+0  13154-3 0  9992", "line2": "2 66603  42.9997 186.2724 0001645 250.6549 157.3977 15.50546418  4473"}}, "geometry": {"type": "Point", "coordinates": [24.198155387211543, -20.002332655048527]}}, {"type": "Feature", "properties": {"norad_id": 66604, "name": "STARLINK-35977", "group": "last-30-days", "lat": -21.232586297156658, "lon": 25.8413242764959, "alt_km": 416.4105243098793, "timestamp": "2025-12-14T16:47:39.437197+00:00", "meta": {"OBJECT_NAME": "STARLINK-35977", "OBJECT_ID": "2025-270S", "EPOCH": "2025-12-13T20:00:03.000384", "MEAN_MOTION": 15.50468794, "ECCENTRICITY": 0.00015548, "INCLINATION": 42.9997, "RA_OF_ASC_NODE": 186.2679, "ARG_OF_PERICENTER": 262.0513, "MEAN_ANOMALY": 148.0151, "EPHEMERIS_TYPE": 0, "CLASSIFICATION_TYPE": "U", "NORAD_CAT_ID": 66604, "ELEMENT_SET_NO": 999, "REV_AT_EPOCH": 457, "BSTAR": 0.0014187105, "MEAN_MOTION_DOT": 0.00083451, "MEAN_MOTION_DDOT": 0}, "tle": {"line1": "1 66604U 25270S   25347.83336806  .00083451  00000+0  14187-2 0  9999", "line2": "2 66604  42.9997 186.2679 0001554 262.0513 148.0151 15.50468794  4572"}}, "geometry": {"type": "Point", "coordinates": [25.8413242764959, -21.232586297156658]}}, {"type": "Feature", "properties": {"norad_id": 66605, "name": "STARLINK-36052", "group": "last-30-days", "lat": -22.40824299819943, "lon": 27.457801740005817, "alt_km": 416.5430032470749, "timestamp": "2025-12-14T16:47:39.437208+00:00", "meta": {"OBJECT_NAME": "STARLINK-36052", "OBJECT_ID": "2025-270T", "EPOCH": "2025-12-13T20:00:03.000384", "MEAN_MOTION": 15.50525361, "ECCENTRICITY": 0.00016012, "INCLINATION": 42.9997, "RA_OF_ASC_NODE": 186.2632, "ARG_OF_PERICENTER": 268.1479, "MEAN_ANOMALY": 143.738, "EPHEMERIS_TYPE": 0, "CLASSIFICATION_TYPE": "U", "NORAD_CAT_ID": 66605, "ELEMENT_SET_NO": 999, "REV_AT_EPOCH": 457, "BSTAR": 0.0008885057, "MEAN_MOTION_DOT": 0.0005203, "MEAN_MOTION_DDOT": 0}, "tle": {"line1": "1 66605U 25270T   25347.83336806  .00052030  00000+0  88851-3 0  9999", "line2": "2 66605  42.9997 186.2632 0001601 268.1479 143.7380 15.50525361  4573"}}, "geometry": {"type": "Point", "coordinates": [27.457801740005817, -22.40824299819943]}}, {"type": "Feature", "properties": {"norad_id": 66606, "name": "STARLINK-36063", "group": "last-30-days", "lat": -24.750034001454228, "lon": 30.836603969899436, "alt_km": 416.5140739710996, "timestamp": "2025-12-14T16:47:39.437218+00:00", "meta": {"OBJECT_NAME": "STARLINK-36063", "OBJECT_ID": "2025-270U", "EPOCH": "2025-12-13T20:00:03.000384", "MEAN_MOTION": 15.50518481, "ECCENTRICITY": 0.00016138, "INCLINATION": 42.9997, "RA_OF_ASC_NODE": 186.2538, "ARG_OF_PERICENTER": 266.9033, "MEAN_ANOMALY": 148.8156, "EPHEMERIS_TYPE": 0, "CLASSIFICATION_TYPE": "U", "NORAD_CAT_ID": 66606, "ELEMENT_SET_NO": 999, "REV_AT_EPOCH": 457, "BSTAR": 0.0013927461, "MEAN_MOTION_DOT": 0.00082048, "MEAN_MOTION_DDOT": 0}, "tle": {"line1": "1 66606U 25270U   25347.83336806  .00082048  00000+0  13927-2 0  9993", "line2": "2 66606  42.9997 186.2538 0001613 266.9033 148.8156 15.50518481  4576"}}, "geometry": {"type": "Point", "coordinates": [30.836603969899436, -24.750034001454228]}}, {"type": "Feature", "properties": {"norad_id": 66607, "name": "STARLINK-35993", "group": "last-30-days", "lat": -23.580781665691433, "lon": 29.12122181483372, "alt_km": 416.6139615561251, "timestamp": "2025-12-14T16:47:39.437228+00:00", "meta": {"OBJECT_NAME": "STARLINK-35993", "OBJECT_ID": "2025-270V", "EPOCH": "2025-12-13T20:00:03.000384", "MEAN_MOTION": 15.50527268, "ECCENTRICITY": 0.00014043, "INCLINATION": 42.9997, "RA_OF_ASC_NODE": 186.2585, "ARG_OF_PERICENTER": 264.7411, "MEAN_ANOMALY": 149.0643, "EPHEMERIS_TYPE": 0, "CLASSIFICATION_TYPE": "U", "NORAD_CAT_ID": 66607, "ELEMENT_SET_NO": 999, "REV_AT_EPOCH": 447, "BSTAR": 0.00092248496, "MEAN_MOTION_DOT": 0.0005405, "MEAN_MOTION_DDOT": 0}, "tle": {"line1": "1 66607U 25270V   25347.83336806  .00054050  00000+0  92248-3 0  9990", "line2": "2 66607  42.9997 186.2585 0001404 264.7411 149.0643 15.50527268  4479"}}, "geometry": {"type": "Point", "coordinates": [29.12122181483372, -23.580781665691433]}}]}